{
  "type": "FeatureCollection",
  "features": [
    {
      "type": "Feature",
      "properties": {
        "norad_id": 27954,
        "name": "GALAXY 13 (HORIZONS-1)",
        "group": "intelsat",
        "lat": -0.9166543713628009,
        "lon": 1.1687069284927298,
        "alt_km": 35790.22703999206,
        "timestamp": "2025-12-09T04:51:47.175657+00:00",
        "meta_object_name": "GALAXY 13 (HORIZONS-1)",
        "meta_object_id": "2003-044A",
        "meta_epoch": "2025-12-08T16:18:51.670080",
        "meta_mean_motion": 1.00269733,
        "meta_eccentricity": 0.000203,
        "meta_inclination": 0.9249,
        "meta_ra_of_asc_node": 86.5233,
        "meta_arg_of_pericenter": 160.3952,
        "meta_mean_anomaly": 285.4875,
        "meta_ephemeris_type": 0,
        "meta_classification_type": "U",
        "meta_norad_cat_id": 27954,
        "meta_element_set_no": 999,
        "meta_rev_at_epoch": 4466,
        "meta_bstar": 0,
        "meta_mean_motion_dot": 1.35e-06,
        "meta_mean_motion_ddot": 0,
        "tle_line1": "1 27954U 03044A   25342.67976470  .00000135  00000+0  00000+0 0  9997",
        "tle_line2": "2 27954   0.9249  86.5233 0002030 160.3952 285.4875  1.00269733 44661"
      },
      "geometry": {
        "type": "Point",
        "coordinates": [
          1.1687069284927298,
          -0.9166543713628009
        ]
      }
    },
    {
      "type": "Feature",
      "properties": {
        "norad_id": 28358,
        "name": "INTELSAT 10-02",
        "group": "intelsat",
        "lat": 0.029784299090539576,
        "lon": 150.1552952514046,
        "alt_km": 35790.78204530968,
        "timestamp": "2025-12-09T04:51:47.175669+00:00",
        "meta_object_name": "INTELSAT 10-02",
        "meta_object_id": "2004-022A",
        "meta_epoch": "2025-12-08T18:44:16.342944",
        "meta_mean_motion": 1.00271324,
        "meta_eccentricity": 0.0001333,
        "meta_inclination": 0.0308,
        "meta_ra_of_asc_node": 71.0124,
        "meta_arg_of_pericenter": 224.0151,
        "meta_mean_anomaly": 62.8466,
        "meta_ephemeris_type": 0,
        "meta_classification_type": "U",
        "meta_norad_cat_id": 28358,
        "meta_element_set_no": 999,
        "meta_rev_at_epoch": 7864,
        "meta_bstar": 0,
        "meta_mean_motion_dot": -9e-08,
        "meta_mean_motion_ddot": 0,
        "tle_line1": "1 28358U 04022A   25342.78074471 -.00000009  00000+0  00000+0 0  9996",
        "tle_line2": "2 28358   0.0308  71.0124 0001333 224.0151  62.8466  1.00271324 78646"
      },
      "geometry": {
        "type": "Point",
        "coordinates": [
          150.1552952514046,
          0.029784299090539576
        ]
      }
    },
    {
      "type": "Feature",
      "properties": {
        "norad_id": 28626,
        "name": "XM-3 (RHYTHM)",
        "group": "intelsat",
        "lat": -0.07805372439673802,
        "lon": -77.75924687863257,
        "alt_km": 36157.02801131899,
        "timestamp": "2025-12-09T04:51:47.175681+00:00",
        "meta_object_name": "XM-3 (RHYTHM)",
        "meta_object_id": "2005-008A",
        "meta_epoch": "2025-12-08T19:22:20.198208",
        "meta_mean_motion": 0.98953939,
        "meta_eccentricity": 0.0001329,
        "meta_inclination": 0.1645,
        "meta_ra_of_asc_node": 81.1557,
        "meta_arg_of_pericenter": 262.9494,
        "meta_mean_anomaly": 157.2768,
        "meta_ephemeris_type": 0,
        "meta_classification_type": "U",
        "meta_norad_cat_id": 28626,
        "meta_element_set_no": 999,
        "meta_rev_at_epoch": 4071,
        "meta_bstar": 0,
        "meta_mean_motion_dot": -2.51e-06,
        "meta_mean_motion_ddot": 0,
        "tle_line1": "1 28626U 05008A   25342.80717822 -.00000251  00000+0  00000+0 0  9995",
        "tle_line2": "2 28626   0.1645  81.1557 0001329 262.9494 157.2768  0.98953939 40713"
      },
      "geometry": {
        "type": "Point",
        "coordinates": [
          -77.75924687863257,
          -0.07805372439673802
        ]
      }
    },
    {
      "type": "Feature",
      "properties": {
        "norad_id": 28659,
        "name": "DIRECTV 8",
        "group": "intelsat",
        "lat": 0.022220075754752124,
        "lon": 32.12263944273995,
        "alt_km": 35794.81760085688,
        "timestamp": "2025-12-09T04:51:47.175693+00:00",
        "meta_object_name": "DIRECTV 8",
        "meta_object_id": "2005-019A",
        "meta_epoch": "2025-12-08T16:27:43.322112",
        "meta_mean_motion": 1.00271726,
        "meta_eccentricity": 0.00032,
        "meta_inclination": 0.017,
        "meta_ra_of_asc_node": 2.9387,
        "meta_arg_of_pericenter": 258.9948,
        "meta_mean_anomaly": 303.6393,
        "meta_ephemeris_type": 0,
        "meta_classification_type": "U",
        "meta_norad_cat_id": 28659,
        "meta_element_set_no": 999,
        "meta_rev_at_epoch": 7516,
        "meta_bstar": 0,
        "meta_mean_motion_dot": 3e-08,
        "meta_mean_motion_ddot": 0,
        "tle_line1": "1 28659U 05019A   25342.68591808  .00000003  00000+0  00000+0 0  9997",
        "tle_line2": "2 28659   0.0170   2.9387 0003200 258.9948 303.6393  1.00271726 75161"
      },
      "geometry": {
        "type": "Point",
        "coordinates": [
          32.12263944273995,
          0.022220075754752124
        ]
      }
    },
    {
      "type": "Feature",
      "properties": {
        "norad_id": 28702,
        "name": "GALAXY 28 (G-28)",
        "group": "intelsat",
        "lat": -0.8870489786542719,
        "lon": 62.48830451107401,
        "alt_km": 35797.172550503914,
        "timestamp": "2025-12-09T04:51:47.175710+00:00",
        "meta_object_name": "GALAXY 28 (G-28)",
        "meta_object_id": "2005-022A",
        "meta_epoch": "2025-12-08T14:53:37.334400",
        "meta_mean_motion": 1.00271292,
        "meta_eccentricity": 0.0002667,
        "meta_inclination": 2.8081,
        "meta_ra_of_asc_node": 81.3297,
        "meta_arg_of_pericenter": 178.1657,
        "meta_mean_anomaly": 312.8506,
        "meta_ephemeris_type": 0,
        "meta_classification_type": "U",
        "meta_norad_cat_id": 28702,
        "meta_element_set_no": 999,
        "meta_rev_at_epoch": 5006,
        "meta_bstar": 0,
        "meta_mean_motion_dot": -1.86e-06,
        "meta_mean_motion_ddot": 0,
        "tle_line1": "1 28702U 05022A   25342.62057100 -.00000186  00000+0  00000+0 0  9999",
        "tle_line2": "2 28702   2.8081  81.3297 0002667 178.1657 312.8506  1.00271292 50066"
      },
      "geometry": {
        "type": "Point",
        "coordinates": [
          62.48830451107401,
          -0.8870489786542719
        ]
      }
    },
    {
      "type": "Feature",
      "properties": {
        "norad_id": 29236,
        "name": "GALAXY 16 (G-16)",
        "group": "intelsat",
        "lat": 0.0018867905262749214,
        "lon": 52.13991403879269,
        "alt_km": 35797.4570205913,
        "timestamp": "2025-12-09T04:51:47.175734+00:00",
        "meta_object_name": "GALAXY 16 (G-16)",
        "meta_object_id": "2006-023A",
        "meta_epoch": "2025-12-08T14:50:30.133248",
        "meta_mean_motion": 1.00272594,
        "meta_eccentricity": 0.0002898,
        "meta_inclination": 0.0102,
        "meta_ra_of_asc_node": 98.5985,
        "meta_arg_of_pericenter": 152.684,
        "meta_mean_anomaly": 309.9515,
        "meta_ephemeris_type": 0,
        "meta_classification_type": "U",
        "meta_norad_cat_id": 29236,
        "meta_element_set_no": 999,
        "meta_rev_at_epoch": 7106,
        "meta_bstar": 0,
        "meta_mean_motion_dot": -1.25e-06,
        "meta_mean_motion_ddot": 0,
        "tle_line1": "1 29236U 06023A   25342.61840432 -.00000125  00000+0  00000+0 0  9994",
        "tle_line2": "2 29236   0.0102  98.5985 0002898 152.6840 309.9515  1.00272594 71060"
      },
      "geometry": {
        "type": "Point",
        "coordinates": [
          52.13991403879269,
          0.0018867905262749214
        ]
      }
    },
    {
      "type": "Feature",
      "properties": {
        "norad_id": 29494,
        "name": "DIRECTV 9S",
        "group": "intelsat",
        "lat": -1.0406360419021827,
        "lon": 49.960676532895896,
        "alt_km": 35798.22198846825,
        "timestamp": "2025-12-09T04:51:47.175749+00:00",
        "meta_object_name": "DIRECTV 9S",
        "meta_object_id": "2006-043A",
        "meta_epoch": "2025-12-08T16:32:50.333280",
        "meta_mean_motion": 1.00270645,
        "meta_eccentricity": 0.0003192,
        "meta_inclination": 1.9297,
        "meta_ra_of_asc_node": 83.2481,
        "meta_arg_of_pericenter": 176.9714,
        "meta_mean_anomaly": 324.469,
        "meta_ephemeris_type": 0,
        "meta_classification_type": "U",
        "meta_norad_cat_id": 29494,
        "meta_element_set_no": 999,
        "meta_rev_at_epoch": 4947,
        "meta_bstar": 0,
        "meta_mean_motion_dot": -1.11e-06,
        "meta_mean_motion_ddot": 0,
        "tle_line1": "1 29494U 06043A   25342.68947145 -.00000111  00000+0  00000+0 0  9993",
        "tle_line2": "2 29494   1.9297  83.2481 0003192 176.9714 324.4690  1.00270645 49471"
      },
      "geometry": {
        "type": "Point",
        "coordinates": [
          49.960676532895896,
          -1.0406360419021827
        ]
      }
    }
  ]
}